     2.100          NAVIGATION                              RINEX VERSION / TYPE
fic2rin                                 03/24/2017 00:07:33 PGM / RUN BY / DATE
                                                            END OF HEADER
24 17  3 23 18  0  0.0 -.323019921780D-04 -.568434188608D-12  .000000000000D+00
     .950000000000D+02 -.200937500000D+02  .501306595718D-08 -.281984051102D+01
    -.111572444439D-05  .562186480965D-02  .816769897938D-05  .515369819450D+04
     .410400000000D+06 -.912696123123D-07  .184041559299D+01 -.109896063805D-06
     .945758292732D+00  .214187500000D+03  .476366403670D+00 -.822462830307D-08
    -.401802450971D-09  .100000000000D+01  .194100000000D+04  .000000000000D+00
     .340000000000D+01  .000000000000D+00  .232830643654D-08  .950000000000D+02
     .403206000000D+06  .400000000000D+01
26 17  3 23 18  0  0.0 -.517472159117D-03  .159161572810D-11  .000000000000D+00
     .860000000000D+02  .684062500000D+02  .445661420730D-08  .961696393144D+00
     .369921326637D-05  .179880997166D-02  .867992639542D-05  .515367798042D+04
     .410400000000D+06  .596046447754D-07  .290672803314D+01  .391155481339D-07
     .959548851347D+00  .206906250000D+03  .147736717484D-01 -.806497879588D-08
    -.264296723305D-10  .100000000000D+01  .194100000000D+04  .000000000000D+00
     .240000000000D+01  .000000000000D+00  .698491930962D-08  .860000000000D+02
     .403206000000D+06  .400000000000D+01
27 17  3 23 18  0  0.0  .228818971664D-03  .613908923697D-11  .000000000000D+00
     .740000000000D+02  .750000000000D+01  .440589780904D-08 -.801891741118D+00
     .352039933205D-06  .457284133881D-02  .341236591339D-05  .515365814209D+04
     .410400000000D+06  .949949026108D-07 -.232278385069D+01 -.447034835815D-07
     .974238008855D+00  .321812500000D+03  .296240840832D+00 -.828927385296D-08
     .821462788651D-11  .100000000000D+01  .194100000000D+04  .000000000000D+00
     .240000000000D+01  .000000000000D+00  .186264514923D-08  .740000000000D+02
     .403206000000D+06  .400000000000D+01
28 17  3 23 18  0  0.0  .599232967943D-03  .306954461848D-11  .000000000000D+00
     .730000000000D+02  .666875000000D+02  .387801867790D-08 -.217758091756D-01
     .358372926712D-05  .198046829319D-01  .955536961555D-05  .515365003586D+04
     .410400000000D+06 -.266358256340D-06  .299892210041D+01 -.111758708954D-07
     .989064467076D+00  .215000000000D+03 -.157137555897D+01 -.813783897366D-08
     .789318592573D-10  .100000000000D+01  .194100000000D+04  .000000000000D+00
     .340000000000D+01  .000000000000D+00 -.111758708954D-07  .730000000000D+02
     .403206000000D+06  .400000000000D+01
29 17  3 23 18  0  0.0  .618203077465D-03 -.284217094304D-11  .000000000000D+00
     .620000000000D+02  .122812500000D+02  .423981946264D-08  .119439556422D+01
     .581145286560D-06  .696208095178D-03  .347010791302D-05  .515365627480D+04
     .410400000000D+06  .931322574615D-08 -.226111190142D+01  .186264514923D-07
     .980377589302D+00  .322000000000D+03 -.622203197261D-02 -.814712507475D-08
     .392873507616D-10  .100000000000D+01  .194100000000D+04  .000000000000D+00
     .240000000000D+01  .000000000000D+00 -.102445483208D-07  .620000000000D+02
     .403206000000D+06  .400000000000D+01
31 17  3 23 18  0  0.0  .211705453694D-03 -.227373675443D-11  .000000000000D+00
     .340000000000D+02 -.471875000000D+01  .452947438507D-08  .241705980399D+01
    -.521540641785D-07  .849606120028D-02  .884011387825D-05  .515366931152D+04
     .410400000000D+06 -.279396772385D-07  .190343955360D+01  .216066837311D-06
     .967488179446D+00  .214968750000D+03 -.267995207693D+00 -.791532970525D-08
    -.465376527657D-09  .100000000000D+01  .194100000000D+04  .000000000000D+00
     .240000000000D+01  .000000000000D+00 -.135041773319D-07  .340000000000D+02
     .403206000000D+06  .400000000000D+01
32 17  3 23 18  0  0.0 -.361937098205D-03 -.123918653117D-10  .000000000000D+00
     .500000000000D+01  .203750000000D+02  .501985195413D-08 -.465853286259D-01
     .107102096081D-05  .916948076338D-03  .567547976971D-05  .515370118523D+04
     .410400000000D+06 -.447034835815D-07  .816643015591D+00  .186264514923D-07
     .958345026300D+00  .269625000000D+03 -.274453943615D+01 -.827998775187D-08
     .118576367753D-09  .100000000000D+01  .194100000000D+04  .000000000000D+00
     .240000000000D+01  .000000000000D+00  .465661287308D-09  .500000000000D+01
     .403206000000D+06  .400000000000D+01
24 17  3 23 17 59 28.0 -.323001295328D-04 -.568434188608D-12  .000000000000D+00
     .240000000000D+02 -.200937500000D+02  .501342311491D-08 -.282450892985D+01
    -.111572444439D-05  .562186492607D-02  .816769897938D-05  .515369819450D+04
     .410368000000D+06 -.912696123123D-07  .184041586217D+01 -.111758708954D-06
     .945758311750D+00  .214187500000D+03  .476367426250D+00 -.822462830307D-08
    -.401802450971D-09  .100000000000D+01  .194100000000D+04  .000000000000D+00
     .240000000000D+01  .000000000000D+00  .232830643654D-08  .240000000000D+02
     .407766000000D+06  .400000000000D+01
 3 17  3 23 17 59 28.0 -.106348656118D-03  .795807864051D-12  .000000000000D+00
     .220000000000D+02 -.190625000000D+01  .437625371710D-08  .249702741784D+01
    -.204890966415D-07  .512129161507D-03  .107008963823D-04  .515377765846D+04
     .410368000000D+06 -.186264514923D-08 -.222665538228D+00  .353902578354D-07
     .960148382971D+00  .168812500000D+03  .213456814167D+00 -.790068623815D-08
     .441089801732D-09  .100000000000D+01  .194100000000D+04  .000000000000D+00
     .240000000000D+01  .000000000000D+00  .186264514923D-08  .220000000000D+02
     .408516000000D+06  .400000000000D+01
 3 17  3 23 19 59 28.0 -.106343068182D-03  .795807864051D-12  .000000000000D+00
     .230000000000D+02  .243750000000D+01  .430160775066D-08 -.273548506457D+01
     .176951289177D-06  .512055354193D-03  .109467655420D-04  .515377772903D+04
     .417568000000D+06  .242143869400D-07 -.222722280431D+00  .875443220139D-07
     .960151665759D+00  .168343750000D+03  .212900377184D+00 -.786711341114D-08
     .428232123301D-09  .100000000000D+01  .194100000000D+04  .000000000000D+00
     .240000000000D+01  .000000000000D+00  .186264514923D-08  .230000000000D+02
     .410406000000D+06  .400000000000D+01
24 17  3 23 19 59 28.0 -.323038548231D-04 -.568434188608D-12  .000000000000D+00
     .260000000000D+02 -.255312500000D+02  .505199615020D-08 -.177442485939D+01
    -.141374766827D-05  .562256516423D-02  .794231891632D-05  .515369663239D+04
     .417568000000D+06  .223517417908D-07  .184035606686D+01 -.968575477600D-07
     .945755649239D+00  .217843750000D+03  .476453966632D+00 -.826641575797D-08
    -.337156901081D-09  .100000000000D+01  .194100000000D+04  .000000000000D+00
     .240000000000D+01  .000000000000D+00  .232830643654D-08  .260000000000D+02
     .410406000000D+06  .400000000000D+01
 1 17  3 23 20  0  0.0  .519258901477D-04  .795807864051D-12  .000000000000D+00
     .400000000000D+01 -.981562500000D+02  .419981779641D-08 -.196368133807D+01
    -.506825745106D-05  .635820161551D-02  .801309943199D-05  .515369411850D+04
     .417600000000D+06 -.316649675369D-07 -.126495595650D+01 -.782310962677D-07
     .966589878988D+00  .227562500000D+03  .535428384204D+00 -.792497296408D-08
    -.186436337250D-09  .100000000000D+01  .194100000000D+04  .000000000000D+00
     .240000000000D+01  .000000000000D+00  .512227416039D-08  .400000000000D+01
     .410406000000D+06  .400000000000D+01
 2 17  3 23 20  0  0.0  .453334767371D-03 -.716227077646D-11  .000000000000D+00
     .740000000000D+02 -.981875000000D+02  .480877173322D-08 -.160147138849D+01
    -.493787229061D-05  .167590283090D-01  .619888305664D-05  .515375735092D+04
     .417600000000D+06  .463798642159D-06 -.131695787683D+01  .102445483208D-06
     .945473424546D+00  .249375000000D+03 -.200142638294D+01 -.820355599675D-08
    -.249296098469D-09  .100000000000D+01  .194100000000D+04  .000000000000D+00
     .240000000000D+01  .000000000000D+00 -.204890966415D-07  .740000000000D+02
     .410406000000D+06  .400000000000D+01
 4 17  3 23 20  0  0.0  .888016074896D-06  .454747350886D-12  .000000000000D+00
     .570000000000D+02  .598125000000D+02  .525486174323D-08  .128787342256D+01
     .329315662384D-05  .905634218361D-02  .975281000137D-05  .515374438858D+04
     .417600000000D+06 -.165775418282D-06  .294391333191D+01  .122934579849D-06
     .982560889205D+00  .205656250000D+03  .882142327214D+00 -.790425781549D-08
    -.135719938995D-10  .100000000000D+01  .194100000000D+04  .000000000000D+00
     .240000000000D+01  .630000000000D+02 -.195577740669D-07  .570000000000D+02
     .410406000000D+06  .400000000000D+01
 5 17  3 23 20  0  0.0 -.542849302292D-04  .193267624127D-11  .000000000000D+00
     .103000000000D+03 -.116562500000D+02  .463090718159D-08  .981425888602D+00
    -.486150383949D-06  .489848712459D-02  .108536332846D-04  .515371281242D+04
     .417600000000D+06 -.130385160446D-07 -.238671481465D+00  .447034835815D-07
     .947119510209D+00  .163343750000D+03  .545826447497D+00 -.805747848346D-08
     .295369446180D-09  .100000000000D+01  .194100000000D+04  .000000000000D+00
     .240000000000D+01  .000000000000D+00 -.107102096081D-07  .103000000000D+03
     .410406000000D+06  .400000000000D+01
 6 17  3 23 20  0  0.0  .328456517309D-03  .500222085975D-11  .000000000000D+00
     .320000000000D+02 -.100875000000D+03  .438661129140D-08 -.173390672749D+01
    -.518187880516D-05  .770288868807D-03  .750459730625D-05  .515364269638D+04
     .417600000000D+06  .540167093277D-07 -.127334354026D+01  .260770320892D-07
     .966368668220D+00  .239468750000D+03 -.126482586944D+01 -.813033866124D-08
    -.243224416988D-09  .100000000000D+01  .194100000000D+04  .000000000000D+00
     .240000000000D+01  .000000000000D+00  .419095158577D-08  .320000000000D+02
     .410406000000D+06  .400000000000D+01
